{
  "norad_id": 65396,
  "name": "STARLINK-34811",
  "history": [
    {
      "epoch": "2026-04-14T21:29:41.166240Z",
      "apogee_km": 551.5096100431228,
      "perigee_km": 547.5151274171121,
      "latitude_deg": 2.2970763425208357e-05,
      "longitude_deg": 171.66759987208337,
      "height_km": 552.3408679077638,
      "semi_major_axis_km": 6927.649368730117,
      "eccentricity": 0.0002883,
      "inclination_deg": 97.6043,
      "raan_deg": 337.1546,
      "arg_perigee_deg": 83.3367,
      "mean_anomaly_deg": 276.8188,
      "mean_motion_rev_day": 15.05649604
    },
    {
      "epoch": "2026-04-15T21:25:11.256096Z",
      "apogee_km": 551.469906335291,
      "perigee_km": 547.5516287579676,
      "latitude_deg": 7.301452661743032e-06,
      "longitude_deg": 172.79216363581978,
      "height_km": 552.3157143431237,
      "semi_major_axis_km": 6927.647767546629,
      "eccentricity": 0.0002828,
      "inclination_deg": 97.6041,
      "raan_deg": 338.1371,
      "arg_perigee_deg": 82.5089,
      "mean_anomaly_deg": 277.6459,
      "mean_motion_rev_day": 15.05650126
    },
    {
      "epoch": "2026-04-16T21:20:41.175744Z",
      "apogee_km": 551.4851301286672,
      "perigee_km": 547.5072831414182,
      "latitude_deg": -7.727940917761134e-06,
      "longitude_deg": 173.91773840847395,
      "height_km": 552.2656678638318,
      "semi_major_axis_km": 6927.633206635042,
      "eccentricity": 0.0002871,
      "inclination_deg": 97.6035,
      "raan_deg": 339.1199,
      "arg_perigee_deg": 81.5911,
      "mean_anomaly_deg": 278.5641,
      "mean_motion_rev_day": 15.05654873
    },
    {
      "epoch": "2026-04-17T21:16:11.104032Z",
      "apogee_km": 551.4513647898848,
      "perigee_km": 547.5419625607983,
      "latitude_deg": -4.1649277633310365e-05,
      "longitude_deg": 175.04307892874553,
      "height_km": 552.2311690610325,
      "semi_major_axis_km": 6927.633663675341,
      "eccentricity": 0.00028216,
      "inclination_deg": 97.6035,
      "raan_deg": 340.1025,
      "arg_perigee_deg": 80.402,
      "mean_anomaly_deg": 279.7525,
      "mean_motion_rev_day": 15.05654724
    },
    {
      "epoch": "2026-04-18T21:11:40.894080Z",
      "apogee_km": 551.3937476290375,
      "perigee_km": 547.5877089551132,
      "latitude_deg": -1.6952414443090228e-05,
      "longitude_deg": 176.16898813333398,
      "height_km": 552.206128963109,
      "semi_major_axis_km": 6927.627728292075,
      "eccentricity": 0.0002747,
      "inclination_deg": 97.6034,
      "raan_deg": 341.0851,
      "arg_perigee_deg": 79.5499,
      "mean_anomaly_deg": 280.6037,
      "mean_motion_rev_day": 15.05656659
    },
    {
      "epoch": "2026-04-19T21:07:12.089856Z",
      "apogee_km": 551.3534354076119,
      "perigee_km": 547.777355431097,
      "latitude_deg": -1.9847806710094208e-05,
      "longitude_deg": 177.28862653231164,
      "height_km": 552.2633803220133,
      "semi_major_axis_km": 6927.702395419355,
      "eccentricity": 0.0002581,
      "inclination_deg": 97.6023,
      "raan_deg": 342.0673,
      "arg_perigee_deg": 78.2899,
      "mean_anomaly_deg": 281.8617,
      "mean_motion_rev_day": 15.05632317
    },
    {
      "epoch": "2026-04-20T01:54:18.196992Z",
      "apogee_km": 551.7189875310669,
      "perigee_km": 547.4080180621859,
      "latitude_deg": 9.678465585912409e-05,
      "longitude_deg": 105.51315013536225,
      "height_km": 552.3385754829145,
      "semi_major_axis_km": 6927.700502796626,
      "eccentricity": 0.00031114,
      "inclination_deg": 97.602,
      "raan_deg": 342.2638,
      "arg_perigee_deg": 82.408,
      "mean_anomaly_deg": 277.7501,
      "mean_motion_rev_day": 15.05632934
    }
  ]
}